#aV2023  8 25  0  0  0.00000000     288 DD+AD WGS84 FIT  NGA
## 2276 432000.00000000   300.00000000 60181 0.0000000000000
+   31     1  2  3  4  5  6  7  8  9 10 11 12 13 14 15 16 17
+         18 19 20 21 22 23 24 25 26 27 29 30 31 32  0  0  0
+          0  0  0  0  0  0  0  0  0  0  0  0  0  0  0  0  0
+          0  0  0  0  0  0  0  0  0  0  0  0  0  0  0  0  0
+          0  0  0  0  0  0  0  0  0  0  0  0  0  0  0  0  0
++         2  2  2  2  2  2  2  2  2  2  2  2  2  2  2  2  2
++         2  2  2  2  2  2  2  2  2  2  2  2  2  2  0  0  0
++         0  0  0  0  0  0  0  0  0  0  0  0  0  0  0  0  0
++         0  0  0  0  0  0  0  0  0  0  0  0  0  0  0  0  0
++         0  0  0  0  0  0  0  0  0  0  0  0  0  0  0  0  0
%c cc cc ccc ccc cccc cccc cccc cccc ccccc ccccc ccccc ccccc
%c cc cc ccc ccc cccc cccc cccc cccc ccccc ccccc ccccc ccccc
%f  0.0000000  0.000000000  0.00000000000  0.000000000000000
%f  0.0000000  0.000000000  0.00000000000  0.000000000000000
%i    0    0    0    0      0      0      0      0         0
%i    0    0    0    0      0      0      0      0         0
/*      NGA, ST. LOUIS,MO.                                  
/*   EPHEMERIS COMPUTED FROM 2 DAYS OF DATA                 
/*   EPOCHA v8 SMOOTHER                                     
/*   G2139 IERS2010 SATIGS SATAPC                           
*  2023  8 25  1 30  0.00000000
P  1 -18661.321947 -14347.363567 -12974.289659    167.430030                    
V  1  15441.149652   3288.102405 -26225.629620     -0.012435                    
P  2 -13301.207432 -14622.677743 -17316.250980   -561.743964                    
V  2  22812.566154   2631.177564 -19030.523877      0.042419                    
P  3 -12526.579041 -21117.178562  10125.281705   -170.624637                    
V  3  -1432.970462 -13069.402897 -28510.593480      0.187864                    
P  4 -11174.273225 -10294.731953  21797.126958    135.758211                    
V  4  20265.012518 -18801.665228   1391.628850      0.114003                    
P  5   4772.033814  25650.201922   4491.448411   -140.097771                    
V  5  -4328.029328  -4876.443872  31275.907151     -0.014663                    
P  6 -17953.197518   7354.114456  18243.901988    561.436534                    
V  6 -21783.983333  -7258.186005 -18483.320372     -0.057129                    
P  7 -26060.562148  -6012.430361  -1572.101106     86.303349                    
V  7  -1711.772098  -3328.919528  31130.458145     -0.107048                    
P  8  -1693.457625 -17997.250142 -19398.300776   -138.849053                    
V  8  18084.758481 -16763.515521  14418.750685     -0.018594                    
P  9 -17990.938069  -1093.252343  19441.432143    -77.882513                    
V  9  16338.956503 -18781.639432  13959.705484      0.099529                    
P 10  12660.105452  -8568.383792 -21498.188159    -50.636727                    
V 10   7642.019914  26650.850965  -6382.323973     -0.015386                    
P 11  -3917.079784  14611.765853  21841.965640   -336.394701                    
V 11 -26335.431332  -8561.928939    957.533635     -0.176669                    
P 12   9177.570122  24006.809517   6575.052918   -416.858264                    
V 12   -915.645560   9016.881039 -30301.223922     -0.044544                    
P 13  -8189.051563  19685.742451 -15891.204307    564.264934                    
V 13 -17028.735536  10445.300496  22186.173321      0.046729                    
P 14 -14723.251995   4958.656174 -21513.500207    164.327723                    
V 14  -6425.163886 -26664.866019  -1910.641411      0.115776                    
P 15   4932.451885  17615.487595 -19657.037102     70.968862                    
V 15 -15781.724820  18302.537822  13001.183951      0.036296                    
P 16   1574.603453 -24854.998926   8242.012942   -463.743994                    
V 16   4750.975439  10363.485849  29705.377075      0.051549                    
P 17 -22062.919816  12791.961007  -7180.251542    723.153536                    
V 17   5766.579851  -8081.863982 -30187.739996      0.003932                    
P 18  25885.226480   4232.876526  -4744.606503   -394.233368                    
V 18   5128.628649   3789.660313  31181.507478     -0.131202                    
P 19 -20644.714872  16415.505389    -77.850877    362.232461                    
V 19  -1827.919961  -2049.896075 -32231.486971      0.051601                    
P 20  -1541.056833  22137.300960  14768.073739    415.448106                    
V 20  -9712.156682 -16063.996454  22936.069702     -0.020118                    
P 21 -11355.905315 -15139.198444 -18458.710576    150.167061                    
V 21  24037.124940   3243.103569 -16092.394297     -0.006426                    
P 22 -11513.176467  13345.530633 -19489.667500    135.143989                    
V 22  -5348.784253 -25134.729912 -13462.772092     -0.074778                    
P 23  16060.079530   5328.132959 -20511.905630     59.337550                    
V 23   6569.729793  25135.886896  11503.812635      0.048760                    
P 24  15351.856643  14980.316309 -16297.671853   -299.778470                    
V 24 -19972.828192  -1499.934082 -20247.041172     -0.112354                    
P 25  15865.730343  13255.348036  16506.933330    464.057245                    
V 25   3882.062642  21210.199426 -20115.880159      0.021246                    
P 26   7253.358035 -18531.529085  17303.596419    231.574217                    
V 26   9470.369729  20470.538291  18178.149687     -0.015891                    
P 27   9818.078145 -21483.199574 -11973.575191    -27.913195                    
V 27  12311.422822  -8836.301926  26909.686454     -0.065933                    
P 29  17601.687074   2565.942441  19710.574046   -608.366187                    
V 29 -18455.582059  16978.913023  14134.576872     -0.006640                    
P 30 -24143.048481   1733.970727 -11110.514304   -493.676022                    
V 30 -12929.452075  -6663.569441  26498.446678      0.031727                    
P 31  10236.287857 -12464.228835  20984.409994   -222.368930                    
V 31  25746.691524   8216.846723  -7197.894874     -0.005846                    
P 32  20302.672740 -16415.162761  -4073.008586   -546.508232                    
V 32  -1713.464960   5945.867139 -31313.700542     -0.065950                    
EOF
